CYGNUS NG-20            
1 58898U 24021A   24047.55923386  .00022734  00000+0  40525-3 0  9991
2 58898  51.6377 198.1183 0001987 273.6898  86.3864 15.49994312439680
STARLINK-31306          
1 58876U 24020A   24048.25001157 -.01709648  00000+0 -35623-1 0  9997
2 58876  53.1605 212.5915 0001079  69.6491 347.5529 15.48352556  4196
STARLINK-31326          
1 58877U 24020B   24048.25001157 -.01709946  00000+0 -35630-1 0  9997
2 58877  53.1605 212.5897 0001211  71.7436 346.3070 15.48351358  4183
STARLINK-31300          
1 58878U 24020C   24048.25001157 -.01709897  00000+0 -35631-1 0  9994
2 58878  53.1604 212.5878 0001189  72.8521 346.0472 15.48349858  4199
STARLINK-31296          
1 58879U 24020D   24048.25001157 -.01710177  00000+0 -35640-1 0  9998
2 58879  53.1603 212.5861 0001110  72.9109 346.8373 15.48348591  4188
STARLINK-31328          
1 58880U 24020E   24047.77977016 -.00127057  00000+0 -73175-3 0  9997
2 58880  53.1671 214.0188 0002933  60.2411 299.8902 15.78260095  2968
STARLINK-31260          
1 58881U 24020F   24048.25001157 -.01709730  00000+0 -35634-1 0  9997
2 58881  53.1603 212.5826 0001053  69.3913 352.0544 15.48345558  4191
STARLINK-31323          
1 58882U 24020G   24048.25001157 -.01710126  00000+0 -35644-1 0  9990
2 58882  53.1603 212.5807 0001119  74.8196 347.4746 15.48344373  4037
STARLINK-31209          
1 58883U 24020H   24048.25001157 -.01710563  00000+0 -35656-1 0  9999
2 58883  53.1604 212.5790 0001036  63.3603 359.7821 15.48343677  4074
STARLINK-31315          
1 58884U 24020J   24047.91667824 -.00574512  00000+0 -37823-2 0  9991
2 58884  53.1596 212.7428 0000644  45.1939 301.3664 15.76531986  4014
STARLINK-31318          
1 58885U 24020K   24048.25001157 -.01712347  00000+0 -29212-1 0  9994
2 58885  53.1601 212.1788 0001142  90.2864 170.8758 15.53909757  4032
STARLINK-31320          
1 58886U 24020L   24048.25001157 -.01711127  00000+0 -35673-1 0  9998
2 58886  53.1604 212.5734 0001150  64.7063   0.9823 15.48339643  4184
STARLINK-31321          
1 58887U 24020M   24048.25001157 -.01710844  00000+0 -35671-1 0  9992
2 58887  53.1603 212.5699 0001082  64.6299   2.7562 15.48336579  4026
STARLINK-30970          
1 58888U 24020N   24048.25001157 -.01711254  00000+0 -35678-1 0  9996
2 58888  53.1603 212.5717 0001131  67.0772 359.4602 15.48338190  4181
STARLINK-31007          
1 58889U 24020P   24048.25001157 -.01710804  00000+0 -35672-1 0  9991
2 58889  53.1603 212.5681 0001048  64.0224   4.2122 15.48335324  4197
STARLINK-31230          
1 58890U 24020Q   24048.25001157 -.01711070  00000+0 -35680-1 0  9998
2 58890  53.1604 212.5666 0001031  64.2428   4.8404 15.48334062  4077
STARLINK-31245          
1 58891U 24020R   24048.25001157 -.00143762  17677-4 -42671-3 0  9998
2 58891  53.1594 210.6556 0000425  77.7299 208.6320 15.91341579  4209
STARLINK-31254          
1 58892U 24020S   24048.25001157 -.01710650  00000+0 -35673-1 0  9995
2 58892  53.1603 212.5629 0001135  62.4574   8.3233 15.48330916  4189
STARLINK-31255          
1 58893U 24020T   24048.25001157 -.01711323  00000+0 -35690-1 0  9993
2 58893  53.1602 212.5611 0001156  68.4803   3.1493 15.48329707  4181
STARLINK-31243          
1 58894U 24020U   24048.16668981 -.01749549  00000+0 -36158-1 0  9999
2 58894  53.1603 212.9575 0000983  73.5646 254.1619 15.48664121  3915
STARLINK-31218          
1 58895U 24020V   24048.25001157 -.01710533  00000+0 -35676-1 0  9991
2 58895  53.1602 212.5574 0001104  63.4257   9.9011 15.48326629  4070
STARLINK-31221          
1 58896U 24020W   24048.25001157 -.01711236  00000+0 -35694-1 0  9993
2 58896  53.1602 212.5558 0001082  65.9616   8.2139 15.48325571  4072
STARLINK-31190          
1 58897U 24020X   24048.25001157 -.01710974  00000+0 -35690-1 0  9998
2 58897  53.1602 212.5540 0001055  66.4611   8.5630 15.48324123  3918
LEMUR-2-NIMBUS2000      
1 58899U 24022A   24047.51906439  .00013396  00000+0  78171-3 0  9991
2 58899  97.4896 250.1587 0014882 234.3159 125.6687 15.11971402  2459
LEMUR-2-VALHALLA        
1 58900U 24022B   24047.51747502  .00013595  00000+0  78998-3 0  9996
2 58900  97.4895 250.1608 0015338 231.3957 128.5900 15.12114620  2457
2024-022C               
1 58901U 24022C   24047.51537736  .00016923  00000+0  97576-3 0  9994
2 58901  97.4905 250.1636 0014238 227.5851 132.4176 15.12359036  2461
LEMUR-2-OBA-NI-JESU     
1 58902U 24022D   24048.10882536  .00011099  00000+0  63958-3 0  9998
2 58902  97.4894 250.7482 0012466 214.1488 145.8942 15.12501302  2546
LEMUR-2-CAEL            
1 58903U 24022E   24047.90831992  .00011348  00000+0  65040-3 0  9997
2 58903  97.4893 250.5565 0012987 212.6718 147.3710 15.12685391  2511
2024-023A               
1 58905U 24023A   24048.19431831  .00006087  00000+0  68096-3 0  9998
2 58905  49.9970  10.7236 0009843 348.6899  11.3819 14.87968429  2112
2024-023B               
1 58906U 24023B   24048.18636766  .00006269  00000+0  67768-3 0  9999
2 58906  50.0005  10.6787 0009437 319.7688  40.2553 14.89324368  2115
