OBJECT_NAME,OBJECT_ID,EPOCH,MEAN_MOTION,ECCENTRICITY,INCLINATION,RA_OF_ASC_NODE,ARG_OF_PERICENTER,MEAN_ANOMALY,EPHEMERIS_TYPE,CLASSIFICATION_TYPE,NORAD_CAT_ID,ELEMENT_SET_NO,REV_AT_EPOCH,BSTAR,MEAN_MOTION_DOT,MEAN_MOTION_DDOT
STARLINK-31306,2024-020A,2024-02-17T06:00:00.999648,15.48352556,0.0001079,53.1605,212.5915,69.6491,347.5529,0,U,58876,999,419,-0.035623,-0.01709648,0
STARLINK-31326,2024-020B,2024-02-17T06:00:00.999648,15.48351358,0.0001211,53.1605,212.5897,71.7436,346.307,0,U,58877,999,418,-0.03563,-0.01709946,0
STARLINK-31300,2024-020C,2024-02-17T06:00:00.999648,15.48349858,0.0001189,53.1604,212.5878,72.8521,346.0472,0,U,58878,999,419,-0.035631,-0.01709897,0
STARLINK-31296,2024-020D,2024-02-17T06:00:00.999648,15.48348591,0.000111,53.1603,212.5861,72.9109,346.8373,0,U,58879,999,418,-0.03564,-0.01710177,0
STARLINK-31328,2024-020E,2024-02-16T18:42:52.141824,15.78260095,0.0002933,53.1671,214.0188,60.2411,299.8902,0,U,58880,999,296,-0.00073175,-0.00127057,0
STARLINK-31260,2024-020F,2024-02-17T06:00:00.999648,15.48345558,0.0001053,53.1603,212.5826,69.3913,352.0544,0,U,58881,999,419,-0.035634,-0.0170973,0
STARLINK-31323,2024-020G,2024-02-17T06:00:00.999648,15.48344373,0.0001119,53.1603,212.5807,74.8196,347.4746,0,U,58882,999,403,-0.035644,-0.01710126,0
STARLINK-31209,2024-020H,2024-02-17T06:00:00.999648,15.48343677,0.0001036,53.1604,212.579,63.3603,359.7821,0,U,58883,999,407,-0.035656,-0.01710563,0
STARLINK-31315,2024-020J,2024-02-16T22:00:00.999936,15.76531986,6.44e-05,53.1596,212.7428,45.1939,301.3664,0,U,58884,999,401,-0.0037823,-0.00574512,0
STARLINK-31318,2024-020K,2024-02-17T06:00:00.999648,15.53909757,0.0001142,53.1601,212.1788,90.2864,170.8758,0,U,58885,999,403,-0.029212,-0.01712347,0
STARLINK-31320,2024-020L,2024-02-17T06:00:00.999648,15.48339643,0.000115,53.1604,212.5734,64.7063,0.9823,0,U,58886,999,418,-0.035673,-0.01711127,0
STARLINK-31321,2024-020M,2024-02-17T06:00:00.999648,15.48336579,0.0001082,53.1603,212.5699,64.6299,2.7562,0,U,58887,999,402,-0.035671,-0.01710844,0
STARLINK-30970,2024-020N,2024-02-17T06:00:00.999648,15.4833819,0.0001131,53.1603,212.5717,67.0772,359.4602,0,U,58888,999,418,-0.035678,-0.01711254,0
STARLINK-31007,2024-020P,2024-02-17T06:00:00.999648,15.48335324,0.0001048,53.1603,212.5681,64.0224,4.2122,0,U,58889,999,419,-0.035672,-0.01710804,0
STARLINK-31230,2024-020Q,2024-02-17T06:00:00.999648,15.48334062,0.0001031,53.1604,212.5666,64.2428,4.8404,0,U,58890,999,407,-0.03568,-0.0171107,0
STARLINK-31245,2024-020R,2024-02-17T06:00:00.999648,15.91341579,4.25e-05,53.1594,210.6556,77.7299,208.632,0,U,58891,999,420,-0.00042671,-0.00143762,1.7677e-05
STARLINK-31254,2024-020S,2024-02-17T06:00:00.999648,15.48330916,0.0001135,53.1603,212.5629,62.4574,8.3233,0,U,58892,999,418,-0.035673,-0.0171065,0
STARLINK-31255,2024-020T,2024-02-17T06:00:00.999648,15.48329707,0.0001156,53.1602,212.5611,68.4803,3.1493,0,U,58893,999,418,-0.03569,-0.01711323,0
STARLINK-31243,2024-020U,2024-02-17T04:00:01.999584,15.48664121,9.83e-05,53.1603,212.9575,73.5646,254.1619,0,U,58894,999,391,-0.036158,-0.01749549,0
STARLINK-31218,2024-020V,2024-02-17T06:00:00.999648,15.48326629,0.0001104,53.1602,212.5574,63.4257,9.9011,0,U,58895,999,407,-0.035676,-0.01710533,0
STARLINK-31221,2024-020W,2024-02-17T06:00:00.999648,15.48325571,0.0001082,53.1602,212.5558,65.9616,8.2139,0,U,58896,999,407,-0.035694,-0.01711236,0
STARLINK-31190,2024-020X,2024-02-17T06:00:00.999648,15.48324123,0.0001055,53.1602,212.554,66.4611,8.563,0,U,58897,999,391,-0.03569,-0.01710974,0
CYGNUS NG-20,2024-021A,2024-02-16T13:25:17.805504,15.49994312,0.0001987,51.6377,198.1183,273.6898,86.3864,0,U,58898,999,43968,0.00040525,0.00022734,0
LEMUR-2-NIMBUS2000,2024-022A,2024-02-16T12:27:27.163296,15.11971402,0.0014882,97.4896,250.1587,234.3159,125.6687,0,U,58899,999,245,0.00078171,0.00013396,0
LEMUR-2-VALHALLA,2024-022B,2024-02-16T12:25:09.841728,15.1211462,0.0015338,97.4895,250.1608,231.3957,128.59,0,U,58900,999,245,0.00078998,0.00013595,0
2024-022C,2024-022C,2024-02-16T12:22:08.603904,15.12359036,0.0014238,97.4905,250.1636,227.5851,132.4176,0,U,58901,999,246,0.00097576,0.00016923,0
LEMUR-2-OBA-NI-JESU,2024-022D,2024-02-17T02:36:42.511104,15.12501302,0.0012466,97.4894,250.7482,214.1488,145.8942,0,U,58902,999,254,0.00063958,0.00011099,0
LEMUR-2-CAEL,2024-022E,2024-02-16T21:47:58.841088,15.12685391,0.0012987,97.4893,250.5565,212.6718,147.371,0,U,58903,999,251,0.0006504,0.00011348,0
2024-023A,2024-023A,2024-02-17T04:39:49.101984,14.87968429,0.0009843,49.997,10.7236,348.6899,11.3819,0,U,58905,999,211,0.00068096,6.087e-05,0
2024-023B,2024-023B,2024-02-17T04:28:22.165824,14.89324368,0.0009437,50.0005,10.6787,319.7688,40.2553,0,U,58906,999,211,0.00067768,6.269e-05,0
